{
  "type": "FeatureCollection",
  "features": [
    {
      "type": "Feature",
      "properties": {
        "norad_id": 39773,
        "name": "EUTELSAT 3B",
        "group": "eutelsat",
        "lat": 0.049389249629929924,
        "lon": 147.7239116411793,
        "alt_km": 35784.359735532016,
        "timestamp": "2025-12-20T03:42:47.063515+00:00",
        "meta_object_name": "EUTELSAT 3B",
        "meta_object_id": "2014-030A",
        "meta_epoch": "2025-12-19T13:16:47.475264",
        "meta_mean_motion": 1.00272393,
        "meta_eccentricity": 0.0004172,
        "meta_inclination": 0.0604,
        "meta_ra_of_asc_node": 4.345,
        "meta_arg_of_pericenter": 228.1768,
        "meta_mean_anomaly": 58.1672,
        "meta_ephemeris_type": 0,
        "meta_classification_type": "U",
        "meta_norad_cat_id": 39773,
        "meta_element_set_no": 999,
        "meta_rev_at_epoch": 4226,
        "meta_bstar": 0,
        "meta_mean_motion_dot": 4.5e-07,
        "meta_mean_motion_ddot": 0,
        "tle_line1": "1 39773U 14030A   25353.55332726  .00000045  00000+0  00000+0 0  9995",
        "tle_line2": "2 39773   0.0604   4.3450 0004172 228.1768  58.1672  1.00272393 42265"
      },
      "geometry": {
        "type": "Point",
        "coordinates": [
          147.7239116411793,
          0.049389249629929924
        ]
      }
    },
    {
      "type": "Feature",
      "properties": {
        "norad_id": 40425,
        "name": "EUTELSAT 115 WEST B",
        "group": "eutelsat",
        "lat": -0.007261639509999381,
        "lon": 29.794487454632307,
        "alt_km": 35785.32953346483,
        "timestamp": "2025-12-20T03:42:47.063527+00:00",
        "meta_object_name": "EUTELSAT 115 WEST B",
        "meta_object_id": "2015-010B",
        "meta_epoch": "2025-12-19T12:08:14.383392",
        "meta_mean_motion": 1.00273295,
        "meta_eccentricity": 3.76e-05,
        "meta_inclination": 0.0143,
        "meta_ra_of_asc_node": 153.4054,
        "meta_arg_of_pericenter": 157.9495,
        "meta_mean_anomaly": 204.1658,
        "meta_ephemeris_type": 0,
        "meta_classification_type": "U",
        "meta_norad_cat_id": 40425,
        "meta_element_set_no": 999,
        "meta_rev_at_epoch": 3959,
        "meta_bstar": 0,
        "meta_mean_motion_dot": -1e-08,
        "meta_mean_motion_ddot": 0,
        "tle_line1": "1 40425U 15010B   25353.50572203 -.00000001  00000+0  00000+0 0  9994",
        "tle_line2": "2 40425   0.0143 153.4054 0000376 157.9495 204.1658  1.00273295 39594"
      },
      "geometry": {
        "type": "Point",
        "coordinates": [
          29.794487454632307,
          -0.007261639509999381
        ]
      }
    },
    {
      "type": "Feature",
      "properties": {
        "norad_id": 40875,
        "name": "EUTELSAT 8 WEST B",
        "group": "eutelsat",
        "lat": 0.057735128337792825,
        "lon": 136.6491416393285,
        "alt_km": 35798.65712534978,
        "timestamp": "2025-12-20T03:42:47.063538+00:00",
        "meta_object_name": "EUTELSAT 8 WEST B",
        "meta_object_id": "2015-039B",
        "meta_epoch": "2025-12-19T18:21:37.631232",
        "meta_mean_motion": 1.00271041,
        "meta_eccentricity": 0.0004278,
        "meta_inclination": 0.0634,
        "meta_ra_of_asc_node": 356.5295,
        "meta_arg_of_pericenter": 273.1926,
        "meta_mean_anomaly": 86.3009,
        "meta_ephemeris_type": 0,
        "meta_classification_type": "U",
        "meta_norad_cat_id": 40875,
        "meta_element_set_no": 999,
        "meta_rev_at_epoch": 3785,
        "meta_bstar": 0,
        "meta_mean_motion_dot": -4.1e-07,
        "meta_mean_motion_ddot": 0,
        "tle_line1": "1 40875U 15039B   25353.76501888 -.00000041  00000+0  00000+0 0  9997",
        "tle_line2": "2 40875   0.0634 356.5295 0004278 273.1926  86.3009  1.00271041 37850"
      },
      "geometry": {
        "type": "Point",
        "coordinates": [
          136.6491416393285,
          0.057735128337792825
        ]
      }
    },
    {
      "type": "Feature",
      "properties": {
        "norad_id": 41310,
        "name": "EUTELSAT 9B",
        "group": "eutelsat",
        "lat": 0.06662781713292551,
        "lon": 153.6279182984179,
        "alt_km": 35795.67330052268,
        "timestamp": "2025-12-20T03:42:47.063550+00:00",
        "meta_object_name": "EUTELSAT 9B",
        "meta_object_id": "2016-005A",
        "meta_epoch": "2025-12-19T18:26:29.664096",
        "meta_mean_motion": 1.00272484,
        "meta_eccentricity": 0.0004462,
        "meta_inclination": 0.0609,
        "meta_ra_of_asc_node": 71.098,
        "meta_arg_of_pericenter": 203.9311,
        "meta_mean_anomaly": 99.1983,
        "meta_ephemeris_type": 0,
        "meta_classification_type": "U",
        "meta_norad_cat_id": 41310,
        "meta_element_set_no": 999,
        "meta_rev_at_epoch": 3631,
        "meta_bstar": 0,
        "meta_mean_motion_dot": 8.6e-07,
        "meta_mean_motion_ddot": 0,
        "tle_line1": "1 41310U 16005A   25353.76839889  .00000086  00000+0  00000+0 0  9999",
        "tle_line2": "2 41310   0.0609  71.0980 0004462 203.9311  99.1983  1.00272484 36316"
      },
      "geometry": {
        "type": "Point",
        "coordinates": [
          153.6279182984179,
          0.06662781713292551
        ]
      }
    },
    {
      "type": "Feature",
      "properties": {
        "norad_id": 41382,
        "name": "EUTELSAT 65 WEST A",
        "group": "eutelsat",
        "lat": 0.07675852552186484,
        "lon": 79.47525847561381,
        "alt_km": 35794.176366510685,
        "timestamp": "2025-12-20T03:42:47.063563+00:00",
        "meta_object_name": "EUTELSAT 65 WEST A",
        "meta_object_id": "2016-014A",
        "meta_epoch": "2025-12-19T11:38:39.170976",
        "meta_mean_motion": 1.00274135,
        "meta_eccentricity": 0.0002092,
        "meta_inclination": 0.0543,
        "meta_ra_of_asc_node": 330.1482,
        "meta_arg_of_pericenter": 300.8547,
        "meta_mean_anomaly": 286.7795,
        "meta_ephemeris_type": 0,
        "meta_classification_type": "U",
        "meta_norad_cat_id": 41382,
        "meta_element_set_no": 999,
        "meta_rev_at_epoch": 3573,
        "meta_bstar": 0,
        "meta_mean_motion_dot": -2.52e-06,
        "meta_mean_motion_ddot": 0,
        "tle_line1": "1 41382U 16014A   25353.48517559 -.00000252  00000+0  00000+0 0  9990",
        "tle_line2": "2 41382   0.0543 330.1482 0002092 300.8547 286.7795  1.00274135 35738"
      },
      "geometry": {
        "type": "Point",
        "coordinates": [
          79.47525847561381,
          0.07675852552186484
        ]
      }
    },
    {
      "type": "Feature",
      "properties": {
        "norad_id": 41589,
        "name": "EUTELSAT 117 WEST B",
        "group": "eutelsat",
        "lat": -0.00729420714349329,
        "lon": 27.69838641598697,
        "alt_km": 35785.746526596755,
        "timestamp": "2025-12-20T03:42:47.063574+00:00",
        "meta_object_name": "EUTELSAT 117 WEST B",
        "meta_object_id": "2016-038B",
        "meta_epoch": "2025-12-19T12:07:15.989088",
        "meta_mean_motion": 1.00271292,
        "meta_eccentricity": 3.33e-05,
        "meta_inclination": 0.0139,
        "meta_ra_of_asc_node": 154.0822,
        "meta_arg_of_pericenter": 162.5919,
        "meta_mean_anomaly": 196.5118,
        "meta_ephemeris_type": 0,
        "meta_classification_type": "U",
        "meta_norad_cat_id": 41589,
        "meta_element_set_no": 999,
        "meta_rev_at_epoch": 3486,
        "meta_bstar": 0,
        "meta_mean_motion_dot": 1.3e-07,
        "meta_mean_motion_ddot": 0,
        "tle_line1": "1 41589U 16038B   25353.50504617  .00000013  00000+0  00000+0 0  9993",
        "tle_line2": "2 41589   0.0139 154.0822 0000333 162.5919 196.5118  1.00271292 34862"
      },
      "geometry": {
        "type": "Point",
        "coordinates": [
          27.69838641598697,
          -0.00729420714349329
        ]
      }
    },
    {
      "type": "Feature",
      "properties": {
        "norad_id": 42741,
        "name": "EUTELSAT 172B",
        "group": "eutelsat",
        "lat": -0.020374084621367385,
        "lon": -43.32521706757054,
        "alt_km": 35787.21605451092,
        "timestamp": "2025-12-20T03:42:47.063586+00:00",
        "meta_object_name": "EUTELSAT 172B",
        "meta_object_id": "2017-029B",
        "meta_epoch": "2025-12-19T19:13:02.707392",
        "meta_mean_motion": 1.00271075,
        "meta_eccentricity": 2.9e-05,
        "meta_inclination": 0.0413,
        "meta_ra_of_asc_node": 134.8528,
        "meta_arg_of_pericenter": 322.2287,
        "meta_mean_anomaly": 91.8225,
        "meta_ephemeris_type": 0,
        "meta_classification_type": "U",
        "meta_norad_cat_id": 42741,
        "meta_element_set_no": 999,
        "meta_rev_at_epoch": 3193,
        "meta_bstar": 0,
        "meta_mean_motion_dot": 1.9e-07,
        "meta_mean_motion_ddot": 0,
        "tle_line1": "1 42741U 17029B   25353.80072578  .00000019  00000+0  00000+0 0  9990",
        "tle_line2": "2 42741   0.0413 134.8528 0000290 322.2287  91.8225  1.00271075 31932"
      },
      "geometry": {
        "type": "Point",
        "coordinates": [
          -43.32521706757054,
          -0.020374084621367385
        ]
      }
    }
  ]
}